{"fetched_at":"2026-03-29T16:36:15Z","count":15609,"tles":[{"name":"STARLINK-4772","line1":"1 53932U 22119AY  26087.83047750 -.00000021  00000+0  16801-4 0  9997","line2":"2 53932  53.2166 213.2851 0001342  90.2712 269.8434 15.08839628194932","category":"Starlink"}]}