{
  "norad_id": 53932,
  "name": "STARLINK-4772",
  "history": [
    {
      "epoch": "2026-03-28T19:55:53.256000Z",
      "apogee_km": 540.6729057203083,
      "perigee_km": 538.8161463187243,
      "latitude_deg": 7.881698863883862e-06,
      "longitude_deg": 88.06791398518621,
      "height_km": 540.6445651394259,
      "semi_major_axis_km": 6917.881526019516,
      "eccentricity": 0.0001342,
      "inclination_deg": 53.2166,
      "raan_deg": 213.2851,
      "arg_perigee_deg": 90.2712,
      "mean_anomaly_deg": 269.8434,
      "mean_motion_rev_day": 15.08839628
    }
  ]
}